[Satellite]
VERSION=1.1
NAME=IRIDIUM 24 [-]
NICKNAME=IRIDIUM 24 [-]
TLE1=1 25105U 97082B   17186.18132892  .00000121  00000-0  32335-4 0  9990
TLE2=2 25105  86.3924 227.8541 0009387 289.1304  70.8879 14.39861316 25198
